{
  "type": "FeatureCollection",
  "features": [
    {
      "type": "Feature",
      "properties": {
        "norad_id": 66557,
        "name": "STARLINK-35699",
        "group": "last-30-days",
        "lat": -30.127573189686462,
        "lon": 117.17389252699006,
        "alt_km": 387.03143575525155,
        "timestamp": "2025-12-06T20:37:54.813496+00:00",
        "meta_object_name": "STARLINK-35699",
        "meta_object_id": "2025-268A",
        "meta_epoch": "2025-12-06T14:00:01.999872",
        "meta_mean_motion": 15.62108104,
        "meta_eccentricity": 0.00013295,
        "meta_inclination": 43.0001,
        "meta_ra_of_asc_node": 157.3356,
        "meta_arg_of_pericenter": 262.9312,
        "meta_mean_anomaly": 294.6087,
        "meta_ephemeris_type": 0,
        "meta_classification_type": "U",
        "meta_norad_cat_id": 66557,
        "meta_element_set_no": 999,
        "meta_rev_at_epoch": 367,
        "meta_bstar": -0.025302469,
        "meta_mean_motion_dot": -0.02002901,
        "meta_mean_motion_ddot": 0,
        "tle_line1": "1 66557U 25268A   25340.58335648 -.02002901  00000+0 -25302-1 0  9996",
        "tle_line2": "2 66557  43.0001 157.3356 0001329 262.9312 294.6087 15.62108104  3679"
      },
      "geometry": {
        "type": "Point",
        "coordinates": [
          117.17389252699006,
          -30.127573189686462
        ]
      }
    },
    {
      "type": "Feature",
      "properties": {
        "norad_id": 66558,
        "name": "STARLINK-35695",
        "group": "last-30-days",
        "lat": -29.093623241001758,
        "lon": 119.02182974533943,
        "alt_km": 386.9637829035282,
        "timestamp": "2025-12-06T20:37:54.813512+00:00",
        "meta_object_name": "STARLINK-35695",
        "meta_object_id": "2025-268B",
        "meta_epoch": "2025-12-06T14:00:01.999872",
        "meta_mean_motion": 15.62103988,
        "meta_eccentricity": 0.00012905,
        "meta_inclination": 43,
        "meta_ra_of_asc_node": 157.3309,
        "meta_arg_of_pericenter": 266.0387,
        "meta_mean_anomaly": 293.4202,
        "meta_ephemeris_type": 0,
        "meta_classification_type": "U",
        "meta_norad_cat_id": 66558,
        "meta_element_set_no": 999,
        "meta_rev_at_epoch": 367,
        "meta_bstar": -0.025231237,
        "meta_mean_motion_dot": -0.01997645,
        "meta_mean_motion_ddot": 0,
        "tle_line1": "1 66558U 25268B   25340.58335648 -.01997645  00000+0 -25231-1 0  9995",
        "tle_line2": "2 66558  43.0000 157.3309 0001290 266.0387 293.4202 15.62103988  3672"
      },
      "geometry": {
        "type": "Point",
        "coordinates": [
          119.02182974533943,
          -29.093623241001758
        ]
      }
    },
    {
      "type": "Feature",
      "properties": {
        "norad_id": 66559,
        "name": "STARLINK-35419",
        "group": "last-30-days",
        "lat": -28.03415310968033,
        "lon": 120.83458684325892,
        "alt_km": 386.9181204904444,
        "timestamp": "2025-12-06T20:37:54.813523+00:00",
        "meta_object_name": "STARLINK-35419",
        "meta_object_id": "2025-268C",
        "meta_epoch": "2025-12-06T14:00:01.999872",
        "meta_mean_motion": 15.62108715,
        "meta_eccentricity": 0.00013879,
        "meta_inclination": 43.0002,
        "meta_ra_of_asc_node": 157.3269,
        "meta_arg_of_pericenter": 262.8098,
        "meta_mean_anomaly": 298.5612,
        "meta_ephemeris_type": 0,
        "meta_classification_type": "U",
        "meta_norad_cat_id": 66559,
        "meta_element_set_no": 999,
        "meta_rev_at_epoch": 368,
        "meta_bstar": -0.025284204,
        "meta_mean_motion_dot": -0.0200172,
        "meta_mean_motion_ddot": 0,
        "tle_line1": "1 66559U 25268C   25340.58335648 -.02001720  00000+0 -25284-1 0  9995",
        "tle_line2": "2 66559  43.0002 157.3269 0001387 262.8098 298.5612 15.62108715  3685"
      },
      "geometry": {
        "type": "Point",
        "coordinates": [
          120.83458684325892,
          -28.03415310968033
        ]
      }
    },
    {
      "type": "Feature",
      "properties": {
        "norad_id": 66560,
        "name": "STARLINK-35411",
        "group": "last-30-days",
        "lat": -26.949951234733245,
        "lon": 122.61259618859623,
        "alt_km": 386.919739130316,
        "timestamp": "2025-12-06T20:37:54.813533+00:00",
        "meta_object_name": "STARLINK-35411",
        "meta_object_id": "2025-268D",
        "meta_epoch": "2025-12-06T14:00:01.999872",
        "meta_mean_motion": 15.62104978,
        "meta_eccentricity": 0.00013908,
        "meta_inclination": 42.9997,
        "meta_ra_of_asc_node": 157.3228,
        "meta_arg_of_pericenter": 260.3162,
        "meta_mean_anomaly": 302.9758,
        "meta_ephemeris_type": 0,
        "meta_classification_type": "U",
        "meta_norad_cat_id": 66560,
        "meta_element_set_no": 999,
        "meta_rev_at_epoch": 368,
        "meta_bstar": -0.025259579,
        "meta_mean_motion_dot": -0.01999755,
        "meta_mean_motion_ddot": 0,
        "tle_line1": "1 66560U 25268D   25340.58335648 -.01999755  00000+0 -25260-1 0  9994",
        "tle_line2": "2 66560  42.9997 157.3228 0001390 260.3162 302.9758 15.62104978  3680"
      },
      "geometry": {
        "type": "Point",
        "coordinates": [
          122.61259618859623,
          -26.949951234733245
        ]
      }
    },
    {
      "type": "Feature",
      "properties": {
        "norad_id": 66561,
        "name": "STARLINK-35305",
        "group": "last-30-days",
        "lat": -24.71882329989412,
        "lon": 126.06349640069975,
        "alt_km": 386.82195198224235,
        "timestamp": "2025-12-06T20:37:54.813546+00:00",
        "meta_object_name": "STARLINK-35305",
        "meta_object_id": "2025-268E",
        "meta_epoch": "2025-12-06T14:00:01.999872",
        "meta_mean_motion": 15.62105963,
        "meta_eccentricity": 0.0001387,
        "meta_inclination": 42.9995,
        "meta_ra_of_asc_node": 157.3123,
        "meta_arg_of_pericenter": 259.9945,
        "meta_mean_anomaly": 307.1314,
        "meta_ephemeris_type": 0,
        "meta_classification_type": "U",
        "meta_norad_cat_id": 66561,
        "meta_element_set_no": 999,
        "meta_rev_at_epoch": 363,
        "meta_bstar": -0.02527016,
        "meta_mean_motion_dot": -0.02000555,
        "meta_mean_motion_ddot": 0,
        "tle_line1": "1 66561U 25268E   25340.58335648 -.02000555  00000+0 -25270-1 0  9998",
        "tle_line2": "2 66561  42.9995 157.3123 0001387 259.9945 307.1314 15.62105963  3637"
      },
      "geometry": {
        "type": "Point",
        "coordinates": [
          126.06349640069975,
          -24.71882329989412
        ]
      }
    },
    {
      "type": "Feature",
      "properties": {
        "norad_id": 66562,
        "name": "STARLINK-35579",
        "group": "last-30-days",
        "lat": -25.84453814238119,
        "lon": 124.35357343578325,
        "alt_km": 386.9095493329223,
        "timestamp": "2025-12-06T20:37:54.813556+00:00",
        "meta_object_name": "STARLINK-35579",
        "meta_object_id": "2025-268F",
        "meta_epoch": "2025-12-06T14:00:01.999872",
        "meta_mean_motion": 15.62105813,
        "meta_eccentricity": 0.00013247,
        "meta_inclination": 42.9996,
        "meta_ra_of_asc_node": 157.3166,
        "meta_arg_of_pericenter": 259.382,
        "meta_mean_anomaly": 305.8275,
        "meta_ephemeris_type": 0,
        "meta_classification_type": "U",
        "meta_norad_cat_id": 66562,
        "meta_element_set_no": 999,
        "meta_rev_at_epoch": 368,
        "meta_bstar": -0.025272093,
        "meta_mean_motion_dot": -0.02000632,
        "meta_mean_motion_ddot": 0,
        "tle_line1": "1 66562U 25268F   25340.58335648 -.02000632  00000+0 -25272-1 0  9997",
        "tle_line2": "2 66562  42.9996 157.3166 0001324 259.3820 305.8275 15.62105813  3683"
      },
      "geometry": {
        "type": "Point",
        "coordinates": [
          124.35357343578325,
          -25.84453814238119
        ]
      }
    },
    {
      "type": "Feature",
      "properties": {
        "norad_id": 66563,
        "name": "STARLINK-35437",
        "group": "last-30-days",
        "lat": -23.573898911586923,
        "lon": 127.74208222119374,
        "alt_km": 386.78657522173035,
        "timestamp": "2025-12-06T20:37:54.813567+00:00",
        "meta_object_name": "STARLINK-35437",
        "meta_object_id": "2025-268G",
        "meta_epoch": "2025-12-06T14:00:01.999872",
        "meta_mean_motion": 15.62106782,
        "meta_eccentricity": 0.00013255,
        "meta_inclination": 42.9997,
        "meta_ra_of_asc_node": 157.3072,
        "meta_arg_of_pericenter": 259.9504,
        "meta_mean_anomaly": 309.0934,
        "meta_ephemeris_type": 0,
        "meta_classification_type": "U",
        "meta_norad_cat_id": 66563,
        "meta_element_set_no": 999,
        "meta_rev_at_epoch": 368,
        "meta_bstar": -0.025296068,
        "meta_mean_motion_dot": -0.02002363,
        "meta_mean_motion_ddot": 0,
        "tle_line1": "1 66563U 25268G   25340.58335648 -.02002363  00000+0 -25296-1 0  9997",
        "tle_line2": "2 66563  42.9997 157.3072 0001325 259.9504 309.0934 15.62106782  3681"
      },
      "geometry": {
        "type": "Point",
        "coordinates": [
          127.74208222119374,
          -23.573898911586923
        ]
      }
    }
  ]
}